{
    "links": {
        "self": "http://www.neowsapp.com/rest/v1/neo/54054316?api_key=iIulBulltgU6a56xZRHN4H3l9WmuAYTsLGpBGhQ2"
    },
    "id": "54054316",
    "neo_reference_id": "54054316",
    "name": "(2020 RK6)",
    "designation": "2020 RK6",
    "nasa_jpl_url": "http://ssd.jpl.nasa.gov/sbdb.cgi?sstr=54054316",
    "absolute_magnitude_h": 25.412,
    "estimated_diameter": {
        "kilometers": {
            "estimated_diameter_min": 0.0219864431,
            "estimated_diameter_max": 0.0491631814
        },
        "meters": {
            "estimated_diameter_min": 21.9864431205,
            "estimated_diameter_max": 49.163181401
        },
        "miles": {
            "estimated_diameter_min": 0.0136617381,
            "estimated_diameter_max": 0.0305485752
        },
        "feet": {
            "estimated_diameter_min": 72.1340020476,
            "estimated_diameter_max": 161.2965320676
        }
    },
    "is_potentially_hazardous_asteroid": false,
    "close_approach_data": [
        {
            "close_approach_date": "2020-09-08",
            "close_approach_date_full": "2020-Sep-08 06:43",
            "epoch_date_close_approach": 1599547380000,
            "relative_velocity": {
                "kilometers_per_second": "8.914675304",
                "kilometers_per_hour": "32092.8310943328",
                "miles_per_hour": "19941.2371874759"
            },
            "miss_distance": {
                "astronomical": "0.0549539595",
                "lunar": "21.3770902455",
                "kilometers": "8220995.289266265",
                "miles": "5108289.598213857"
            },
            "orbiting_body": "Earth"
        }
    ],
    "orbital_data": {
        "orbit_id": "3",
        "orbit_determination_date": "2020-09-24 08:25:33",
        "first_observation_date": "2020-09-10",
        "last_observation_date": "2020-09-23",
        "data_arc_in_days": 13,
        "observations_used": 25,
        "orbit_uncertainty": "8",
        "minimum_orbit_intersection": ".0434189",
        "jupiter_tisserand_invariant": "4.071",
        "epoch_osculation": "2459109.5",
        "eccentricity": ".4077824465781251",
        "semi_major_axis": "1.713801398106699",
        "inclination": "9.041464885721561",
        "ascending_node_longitude": "351.6691187123986",
        "orbital_period": "819.4815232906055",
        "perihelion_distance": "1.014943271037738",
        "perihelion_argument": "325.6745109649501",
        "aphelion_distance": "2.41265952517566",
        "perihelion_time": "2459077.017564208957",
        "mean_anomaly": "14.26960407578177",
        "mean_motion": ".4393021560198574",
        "equinox": "J2000",
        "orbit_class": {
            "orbit_class_type": "APO",
            "orbit_class_description": "Near-Earth asteroid orbits which cross the Earth’s orbit similar to that of 1862 Apollo",
            "orbit_class_range": "a (semi-major axis) > 1.0 AU; q (perihelion) < 1.017 AU"
        }
    },
    "is_sentry_object": false
}